49198,ONEWEB-0331,2021,109.2,148.0,+,87.91,Active,1,LEO,Kazakhstan,UK,Commercial,Communications,Soyuz,1 49198U 21083N   25084.64247154  .00000118  00000+0  26757-3 0  9996,2 49198  87.9077  64.6240 0001764  93.8502 266.2832 13.18687663172174,13.18687663,0.0001764,LEO
49199,ONEWEB-0333,2021,109.63,148.0,+,87.89,Active,1,LEO,Kazakhstan,UK,Commercial,Communications,Soyuz,1 49199U 21083P   25084.60648508 -.00000052  00000+0 -17777-3 0  9992,2 49199  87.8945  49.4169 0001937  80.1798 279.9550 13.13468400172020,13.134684,0.0001937,LEO
49200,ONEWEB-0334,2021,109.02,148.0,+,87.93,Active,1,LEO,Kazakhstan,UK,Commercial,Communications,Soyuz,1 49200U 21083Q   25084.51090173  .00000241  00000+0  55988-3 0  9998,2 49200  87.9319   3.7814 0002504  66.6387 293.5009 13.20783515177563,13.20783515,0.0002504,LEO
49201,ONEWEB-0335,2021,109.63,148.0,+,87.89,Active,1,LEO,Kazakhstan,UK,Commercial,Communications,Soyuz,1 49201U 21083R   25084.90611956 -.00000047  00000+0 -16459-3 0  9996,2 49201  87.8944  49.3459 0001881  89.9035 270.2309 13.13467387173360,13.13467387,0.0001881,LEO
49202,ONEWEB-0336,2021,109.63,148.0,+,87.89,Active,1,LEO,Kazakhstan,UK,Commercial,Communications,Soyuz,1 49202U 21083S   25083.96321536  .00000321  00000+0  84454-3 0  9997,2 49202  87.8941  49.5276 0002040  84.9529 275.1833 13.13469102171943,13.13469102,0.000204,LEO
49203,ONEWEB-0337,2021,109.63,148.0,+,87.89,Active,1,LEO,Kazakhstan,UK,Commercial,Communications,Soyuz,1 49203U 21083T   25083.97324217  .00000359  00000+0  94763-3 0  9993,2 49203  87.8940  49.5246 0001721  84.2735 275.8591 13.13469227171943,13.13469227,0.0001721,LEO
49204,ONEWEB-0338,2021,109.03,148.0,+,87.93,Active,1,LEO,Kazakhstan,UK,Commercial,Communications,Soyuz,1 49204U 21083U   25084.48556671  .00000113  00000+0  24505-3 0  9997,2 49204  87.9336   3.7713 0002092  70.3288 289.8071 13.20774029177587,13.20774029,0.0002092,LEO
49205,ONEWEB-0339,2021,109.63,148.0,+,87.89,Active,1,LEO,Kazakhstan,UK,Commercial,Communications,Soyuz,1 49205U 21083V   25084.59125550  .00000277  00000+0  72256-3 0  9995,2 49205  87.8940  49.3905 0001836  78.4891 281.6444 13.13468567172006,13.13468567,0.0001836,LEO
